CCSDS_OMM_VERS = 2.0
CREATION_DATE  = 
ORIGINATOR     = 

OBJECT_NAME    = HULIANWANG DIGUI-151
OBJECT_ID      = 2026-013F
CENTER_NAME    = EARTH
REF_FRAME      = TEME
TIME_SYSTEM    = UTC
MEAN_ELEMENT_THEORY = SGP/SGP4

EPOCH          = 2026-02-11T13:02:59.742528
MEAN_MOTION    = 13.81386779
ECCENTRICITY   = .00009072
INCLINATION    = 50.0085
RA_OF_ASC_NODE = 92.3100
ARG_OF_PERICENTER = 97.2813
MEAN_ANOMALY   = 262.8185

EPHEMERIS_TYPE = 0
CLASSIFICATION_TYPE = U
NORAD_CAT_ID   = 67527
ELEMENT_SET_NO = 999
REV_AT_EPOCH   = 324
BSTAR          = .12748581E-3
MEAN_MOTION_DOT = -.7E-7
MEAN_MOTION_DDOT = 0

CCSDS_OMM_VERS = 2.0
CREATION_DATE  = 
ORIGINATOR     = 

OBJECT_NAME    = HULIANWANG DIGUI-152
OBJECT_ID      = 2026-013G
CENTER_NAME    = EARTH
REF_FRAME      = TEME
TIME_SYSTEM    = UTC
MEAN_ELEMENT_THEORY = SGP/SGP4

EPOCH          = 2026-02-10T09:18:59.893344
MEAN_MOTION    = 13.81454105
ECCENTRICITY   = .00014442
INCLINATION    = 50.0085
RA_OF_ASC_NODE = 96.8367
ARG_OF_PERICENTER = 58.6311
MEAN_ANOMALY   = 301.4725

EPHEMERIS_TYPE = 0
CLASSIFICATION_TYPE = U
NORAD_CAT_ID   = 67528
ELEMENT_SET_NO = 999
REV_AT_EPOCH   = 308
BSTAR          = .12389113E-3
MEAN_MOTION_DOT = -.1E-6
MEAN_MOTION_DDOT = 0

CCSDS_OMM_VERS = 2.0
CREATION_DATE  = 
ORIGINATOR     = 

OBJECT_NAME    = HULIANWANG DIGUI-153
OBJECT_ID      = 2026-013H
CENTER_NAME    = EARTH
REF_FRAME      = TEME
TIME_SYSTEM    = UTC
MEAN_ELEMENT_THEORY = SGP/SGP4

EPOCH          = 2026-02-10T09:10:17.265792
MEAN_MOTION    = 13.82103239
ECCENTRICITY   = .00004412
INCLINATION    = 50.0069
RA_OF_ASC_NODE = 96.7952
ARG_OF_PERICENTER = 258.0121
MEAN_ANOMALY   = 102.0724

EPHEMERIS_TYPE = 0
CLASSIFICATION_TYPE = U
NORAD_CAT_ID   = 67529
ELEMENT_SET_NO = 999
REV_AT_EPOCH   = 307
BSTAR          = .18141627E-4
MEAN_MOTION_DOT = -.123E-5
MEAN_MOTION_DDOT = 0

CCSDS_OMM_VERS = 2.0
CREATION_DATE  = 
ORIGINATOR     = 

OBJECT_NAME    = HULIANWANG DIGUI-154
OBJECT_ID      = 2026-013J
CENTER_NAME    = EARTH
REF_FRAME      = TEME
TIME_SYSTEM    = UTC
MEAN_ELEMENT_THEORY = SGP/SGP4

EPOCH          = 2026-02-10T07:22:29.621856
MEAN_MOTION    = 13.82387020
ECCENTRICITY   = .00008015
INCLINATION    = 50.0119
RA_OF_ASC_NODE = 97.0845
ARG_OF_PERICENTER = 34.8680
MEAN_ANOMALY   = 325.2268

EPHEMERIS_TYPE = 0
CLASSIFICATION_TYPE = U
NORAD_CAT_ID   = 67530
ELEMENT_SET_NO = 999
REV_AT_EPOCH   = 306
BSTAR          = .17704616E-3
MEAN_MOTION_DOT = .49E-6
MEAN_MOTION_DDOT = 0

CCSDS_OMM_VERS = 2.0
CREATION_DATE  = 
ORIGINATOR     = 

OBJECT_NAME    = CZ-12 R/B
OBJECT_ID      = 2026-013K
CENTER_NAME    = EARTH
REF_FRAME      = TEME
TIME_SYSTEM    = UTC
MEAN_ELEMENT_THEORY = SGP/SGP4

EPOCH          = 2026-02-10T14:59:01.845024
MEAN_MOTION    = 14.14458023
ECCENTRICITY   = .00689071
INCLINATION    = 49.9940
RA_OF_ASC_NODE = 92.7401
ARG_OF_PERICENTER = 204.5348
MEAN_ANOMALY   = 155.2276

EPHEMERIS_TYPE = 0
CLASSIFICATION_TYPE = U
NORAD_CAT_ID   = 67531
ELEMENT_SET_NO = 999
REV_AT_EPOCH   = 315
BSTAR          = .52226018E-4
MEAN_MOTION_DOT = -.52E-6
MEAN_MOTION_DDOT = 0

CCSDS_OMM_VERS = 2.0
CREATION_DATE  = 
ORIGINATOR     = 

OBJECT_NAME    = STARLINK-36587
OBJECT_ID      = 2026-014A
CENTER_NAME    = EARTH
REF_FRAME      = TEME
TIME_SYSTEM    = UTC
MEAN_ELEMENT_THEORY = SGP/SGP4

EPOCH          = 2026-02-11T14:17:56.678496
MEAN_MOTION    = 15.80906587
ECCENTRICITY   = .00012508
INCLINATION    = 97.2838
RA_OF_ASC_NODE = 286.2104
ARG_OF_PERICENTER = 91.3341
MEAN_ANOMALY   = 268.8071

EPHEMERIS_TYPE = 0
CLASSIFICATION_TYPE = U
NORAD_CAT_ID   = 67532
ELEMENT_SET_NO = 999
REV_AT_EPOCH   = 446
BSTAR          = .83840148E-3
MEAN_MOTION_DOT = .164186E-2
MEAN_MOTION_DDOT = 0

CCSDS_OMM_VERS = 2.0
CREATION_DATE  = 
ORIGINATOR     = 

OBJECT_NAME    = STARLINK-36417
OBJECT_ID      = 2026-014B
CENTER_NAME    = EARTH
REF_FRAME      = TEME
TIME_SYSTEM    = UTC
MEAN_ELEMENT_THEORY = SGP/SGP4

EPOCH          = 2026-02-11T14:48:04.794624
MEAN_MOTION    = 15.75270473
ECCENTRICITY   = .00013939
INCLINATION    = 97.2843
RA_OF_ASC_NODE = 286.1815
ARG_OF_PERICENTER = 82.2952
MEAN_ANOMALY   = 277.8472

EPHEMERIS_TYPE = 0
CLASSIFICATION_TYPE = U
NORAD_CAT_ID   = 67533
ELEMENT_SET_NO = 999
REV_AT_EPOCH   = 446
BSTAR          = .13914006E-2
MEAN_MOTION_DOT = .213417E-2
MEAN_MOTION_DDOT = 0

CCSDS_OMM_VERS = 2.0
CREATION_DATE  = 
ORIGINATOR     = 

OBJECT_NAME    = STARLINK-36576
OBJECT_ID      = 2026-014C
CENTER_NAME    = EARTH
REF_FRAME      = TEME
TIME_SYSTEM    = UTC
MEAN_ELEMENT_THEORY = SGP/SGP4

EPOCH          = 2026-02-11T14:15:56.846016
MEAN_MOTION    = 15.80908889
ECCENTRICITY   = .00013394
INCLINATION    = 97.2844
RA_OF_ASC_NODE = 286.2125
ARG_OF_PERICENTER = 77.2798
MEAN_ANOMALY   = 282.8620

EPHEMERIS_TYPE = 0
CLASSIFICATION_TYPE = U
NORAD_CAT_ID   = 67534
ELEMENT_SET_NO = 999
REV_AT_EPOCH   = 446
BSTAR          = .99247616E-3
MEAN_MOTION_DOT = .195101E-2
MEAN_MOTION_DDOT = 0

CCSDS_OMM_VERS = 2.0
CREATION_DATE  = 
ORIGINATOR     = 

OBJECT_NAME    = STARLINK-36574
OBJECT_ID      = 2026-014D
CENTER_NAME    = EARTH
REF_FRAME      = TEME
TIME_SYSTEM    = UTC
MEAN_ELEMENT_THEORY = SGP/SGP4

EPOCH          = 2026-02-11T14:14:06.147744
MEAN_MOTION    = 15.80991482
ECCENTRICITY   = .00012036
INCLINATION    = 97.2845
RA_OF_ASC_NODE = 286.2141
ARG_OF_PERICENTER = 70.3531
MEAN_ANOMALY   = 289.7867

EPHEMERIS_TYPE = 0
CLASSIFICATION_TYPE = U
NORAD_CAT_ID   = 67535
ELEMENT_SET_NO = 999
REV_AT_EPOCH   = 446
BSTAR          = .14961262E-2
MEAN_MOTION_DOT = .298861E-2
MEAN_MOTION_DDOT = 0

CCSDS_OMM_VERS = 2.0
CREATION_DATE  = 
ORIGINATOR     = 

OBJECT_NAME    = STARLINK-36572
OBJECT_ID      = 2026-014E
CENTER_NAME    = EARTH
REF_FRAME      = TEME
TIME_SYSTEM    = UTC
MEAN_ELEMENT_THEORY = SGP/SGP4

EPOCH          = 2026-02-11T14:00:01.999872
MEAN_MOTION    = 15.75188253
ECCENTRICITY   = .00015563
INCLINATION    = 97.2850
RA_OF_ASC_NODE = 286.1801
ARG_OF_PERICENTER = 88.6274
MEAN_ANOMALY   = 160.4225

EPHEMERIS_TYPE = 0
CLASSIFICATION_TYPE = U
NORAD_CAT_ID   = 67536
ELEMENT_SET_NO = 999
REV_AT_EPOCH   = 449
BSTAR          = -.31217625E-3
MEAN_MOTION_DOT = -.46438E-3
MEAN_MOTION_DDOT = 0

CCSDS_OMM_VERS = 2.0
CREATION_DATE  = 
ORIGINATOR     = 

OBJECT_NAME    = STARLINK-36561
OBJECT_ID      = 2026-014F
CENTER_NAME    = EARTH
REF_FRAME      = TEME
TIME_SYSTEM    = UTC
MEAN_ELEMENT_THEORY = SGP/SGP4

EPOCH          = 2026-02-11T14:36:54.105120
MEAN_MOTION    = 15.75283226
ECCENTRICITY   = .00012425
INCLINATION    = 97.2850
RA_OF_ASC_NODE = 286.1895
ARG_OF_PERICENTER = 86.9833
MEAN_ANOMALY   = 273.1575

EPHEMERIS_TYPE = 0
CLASSIFICATION_TYPE = U
NORAD_CAT_ID   = 67537
ELEMENT_SET_NO = 999
REV_AT_EPOCH   = 446
BSTAR          = .18334313E-2
MEAN_MOTION_DOT = .283766E-2
MEAN_MOTION_DDOT = 0

CCSDS_OMM_VERS = 2.0
CREATION_DATE  = 
ORIGINATOR     = 

OBJECT_NAME    = STARLINK-36397
OBJECT_ID      = 2026-014G
CENTER_NAME    = EARTH
REF_FRAME      = TEME
TIME_SYSTEM    = UTC
MEAN_ELEMENT_THEORY = SGP/SGP4

EPOCH          = 2026-02-11T14:42:29.299104
MEAN_MOTION    = 15.75280981
ECCENTRICITY   = .00014268
INCLINATION    = 97.2849
RA_OF_ASC_NODE = 286.1849
ARG_OF_PERICENTER = 85.6900
MEAN_ANOMALY   = 274.4528

EPHEMERIS_TYPE = 0
CLASSIFICATION_TYPE = U
NORAD_CAT_ID   = 67538
ELEMENT_SET_NO = 999
REV_AT_EPOCH   = 446
BSTAR          = .13812861E-2
MEAN_MOTION_DOT = .211924E-2
MEAN_MOTION_DDOT = 0

