HULIANWANG DIGUI-151    
1 67527U 26013F   26042.54374702 -.00000007  00000+0  12749-3 0  9998
2 67527  50.0085  92.3100 0000907  97.2813 262.8185 13.81386779  3242
HULIANWANG DIGUI-152    
1 67528U 26013G   26041.38819321 -.00000010  00000+0  12389-3 0  9995
2 67528  50.0085  96.8367 0001444  58.6311 301.4725 13.81454105  3089
HULIANWANG DIGUI-153    
1 67529U 26013H   26041.38214428 -.00000123  00000+0  18142-4 0  9992
2 67529  50.0069  96.7952 0000441 258.0121 102.0724 13.82103239  3075
HULIANWANG DIGUI-154    
1 67530U 26013J   26041.30728729  .00000049  00000+0  17705-3 0  9999
2 67530  50.0119  97.0845 0000801  34.8680 325.2268 13.82387020  3061
CZ-12 R/B               
1 67531U 26013K   26041.62432691 -.00000052  00000+0  52226-4 0  9998
2 67531  49.9940  92.7401 0068907 204.5348 155.2276 14.14458023  3157
STARLINK-36587          
1 67532U 26014A   26042.59579489  .00164186  00000+0  83840-3 0  9997
2 67532  97.2838 286.2104 0001250  91.3341 268.8071 15.80906587  4469
STARLINK-36417          
1 67533U 26014B   26042.61672216  .00213417  00000+0  13914-2 0  9999
2 67533  97.2843 286.1815 0001393  82.2952 277.8472 15.75270473  4466
STARLINK-36576          
1 67534U 26014C   26042.59440794  .00195101  00000+0  99248-3 0  9995
2 67534  97.2844 286.2125 0001339  77.2798 282.8620 15.80908889  4461
STARLINK-36574          
1 67535U 26014D   26042.59312671  .00298861  00000+0  14961-2 0  9993
2 67535  97.2845 286.2141 0001203  70.3531 289.7867 15.80991482  4460
STARLINK-36572          
1 67536U 26014E   26042.58335648 -.00046438  00000+0 -31218-3 0  9990
2 67536  97.2850 286.1801 0001556  88.6274 160.4225 15.75188253  4490
STARLINK-36561          
1 67537U 26014F   26042.60895955  .00283766  00000+0  18334-2 0  9994
2 67537  97.2850 286.1895 0001242  86.9833 273.1575 15.75283226  4461
STARLINK-36397          
1 67538U 26014G   26042.61283911  .00211924  00000+0  13813-2 0  9993
2 67538  97.2849 286.1849 0001426  85.6900 274.4528 15.75280981  4461
